IRIDIUM 166             
1 43570U 18061B   25290.91919582 -.00000031  00000+0 -18232-4 0  9992
2 43570  86.4007 158.0211 0001772  80.9030 279.2367 14.34217155378671
IRIDIUM 158             
1 43571U 18061C   25290.88748146 -.00000029  00000+0 -17244-4 0  9994
2 43571  86.4006 158.0442 0002146  83.2724 276.8716 14.34216704378635
IRIDIUM 165             
1 43572U 18061D   25290.91285229  .00000485  00000+0  16608-3 0  9993
2 43572  86.3998 158.0763 0001966  84.4066 275.7354 14.34219156378665
IRIDIUM 155             
1 43573U 18061E   25290.87479751  .00000077  00000+0  20273-4 0  9995
2 43573  86.4001 157.9727 0002154  78.7624 281.3813 14.34217743378625
IRIDIUM 154             
1 43574U 18061F   25290.92555416  .00000374  00000+0  12657-3 0  9991
2 43574  86.4005 158.0730 0002083  84.4098 275.7335 14.34221067378682
IRIDIUM 163             
1 43575U 18061G   25290.90652782  .00000371  00000+0  12550-3 0  9993
2 43575  86.4003 158.0040 0002310  85.8964 274.2496 14.34216612378654
IRIDIUM 156             
1 43576U 18061H   25290.88113964  .00000060  00000+0  14515-4 0  9994
2 43576  86.4003 158.0216 0002014  76.6261 283.5159 14.34217875378649
IRIDIUM 164             
1 43577U 18061J   25290.93188015  .00000094  00000+0  26372-4 0  9991
2 43577  86.4004 158.0368 0001882  84.2970 275.8440 14.34217958378697
